XRISM                   
1 57800U 23137A   24138.50610136  .00008893  00000+0  67571-3 0  9992
2 57800  31.0022 207.8686 0009645 262.9278  97.0261 15.00869201 37992
